OBJECT_NAME,OBJECT_ID,EPOCH,MEAN_MOTION,ECCENTRICITY,INCLINATION,RA_OF_ASC_NODE,ARG_OF_PERICENTER,MEAN_ANOMALY,EPHEMERIS_TYPE,CLASSIFICATION_TYPE,NORAD_CAT_ID,ELEMENT_SET_NO,REV_AT_EPOCH,BSTAR,MEAN_MOTION_DOT,MEAN_MOTION_DDOT
STARLINK-5480,2023-021AN,2026-05-17T14:15:34.447680,14.98333943,.0002885,69.9994,350.8082,269.4355,90.6473,0,U,55664,999,17960,-.71613E-4,-.947E-5,0
STARLINK-5474,2023-021AP,2026-05-17T20:10:03.184032,14.98326866,.00027825,69.9985,350.0632,270.9930,89.0911,0,U,55665,999,17963,-.14205891E-4,-.262E-5,0
STARLINK-5456,2023-021AR,2026-05-18T00:40:25.432032,14.98330351,.0002792,69.9984,349.5155,272.8069,87.2771,0,U,55667,999,17966,-.42194E-4,-.596E-5,0
STARLINK-5455,2023-021AS,2026-05-17T20:34:05.744352,14.98327568,.00029193,69.9993,350.1205,265.6193,94.4633,0,U,55668,999,17963,-.4793919E-5,-.15E-5,0
STARLINK-5459,2023-021AT,2026-05-17T23:34:21.146880,14.98308839,.0002549,69.9993,349.7543,262.8042,97.2827,0,U,55669,999,17965,.31173E-3,.3626E-4,0
STARLINK-5423,2023-021AU,2026-05-17T23:16:18.682752,14.98327791,.0002573,69.9988,349.7106,268.9937,91.0928,0,U,55670,999,17966,-.29857E-4,-.449E-5,0
STARLINK-5460,2023-021AV,2026-05-18T00:22:40.086336,14.98330384,.0002887,69.9996,349.8613,267.6216,92.4613,0,U,55671,999,17966,-.88876E-4,-.1153E-4,0
STARLINK-5463,2023-021AX,2026-05-18T00:46:26.135616,14.98326492,.000283,69.9986,349.5282,267.2251,92.8584,0,U,55673,999,17967,-.33246E-4,-.49E-5,0
STARLINK-5462,2023-021AY,2026-05-18T00:34:24.568608,14.98330665,.0002736,70.0001,349.4975,271.1234,88.9612,0,U,55674,999,17967,.348E-4,.322E-5,0
STARLINK-5232,2023-021AZ,2026-05-18T00:22:23.444832,14.98329740,.0002858,69.9989,349.4707,270.2478,89.8353,0,U,55675,999,17967,-.18729E-4,-.316E-5,0
STARLINK-5300,2023-021BA,2026-05-17T23:10:12.504000,14.98344135,.0002763,70.0010,329.8229,270.1123,89.9719,0,U,55676,999,18015,.29354E-3,.3412E-4,0
STARLINK-5324,2023-021BB,2026-05-17T19:39:40.608000,14.98328829,.00026842,69.9989,330.1128,269.1520,90.9332,0,U,55677,999,18013,.8263914E-5,.6E-7,0
ZHONGXING-26,2023-023A,2026-05-17T21:48:18.377856,1.00274009,.00038412,0.0707,76.5521,356.9824,254.2570,0,U,55686,999,1192,0,-.348E-5,0
HORUS 1,2023-025A,2026-05-17T16:12:23.640768,15.23587247,.000225,97.3470,212.9099,107.7511,252.3972,0,U,55690,999,17940,.16896624E-3,.3973E-4,0
STARLINK-5592,2023-028A,2026-05-18T03:54:03.978720,14.98329600,.0002859,69.9998,69.4071,268.7803,91.3029,0,U,55741,999,17663,.8814E-4,.959E-5,0
STARLINK-5594,2023-028B,2026-05-18T04:00:03.764736,14.98327764,.0002294,70.0001,69.4223,281.2677,78.8224,0,U,55742,999,17644,-.20774E-5,-.118E-5,0
STARLINK-5602,2023-028C,2026-05-18T04:06:04.711104,14.98328933,.0002337,70.0020,69.4373,296.3125,63.7794,0,U,55743,999,17644,.18883E-6,-.91E-6,0
STARLINK-5601,2023-028D,2026-05-18T04:00:17.978400,14.98331096,.0002738,70.0003,69.4233,268.8600,91.2245,0,U,55744,999,17644,-.26686E-4,-.411E-5,0
STARLINK-5579,2023-028F,2026-05-18T03:17:59.613792,14.98331864,.0002693,70.0002,69.3213,270.3476,89.7374,0,U,55746,999,17644,-.81466E-4,-.1065E-4,0
STARLINK-5539,2023-028G,2026-05-18T03:42:01.810368,14.98326216,.0002974,70.0000,69.3784,270.1741,89.9077,0,U,55747,999,17644,-.24289E-4,-.383E-5,0
STARLINK-5580,2023-028H,2026-05-18T03:36:01.312416,14.98330032,.0002967,70.0008,69.3637,266.6705,93.4114,0,U,55748,999,17644,-.26387E-4,-.408E-5,0
STARLINK-5573,2023-028K,2026-05-18T03:30:00.531936,14.98327440,.0002828,69.9999,69.3486,272.2263,87.8572,0,U,55750,999,17644,-.70621E-5,-.177E-5,0
STARLINK-5577,2023-028L,2026-05-18T03:48:02.304000,14.98329188,.0002966,70.0002,69.3929,266.8929,93.1890,0,U,55751,999,17644,.11715E-4,.47E-6,0
STARLINK-5613,2023-028M,2026-05-18T04:30:04.651776,14.98326779,.0002647,70.0004,69.0945,268.7461,91.3395,0,U,55752,999,17645,-.39374E-4,-.563E-5,0
STARLINK-5617,2023-028N,2026-05-18T04:54:19.886976,14.98348093,.000298,70.0010,69.1533,266.3112,93.7707,0,U,55753,999,17645,.20588E-3,.2366E-4,0
STARLINK-5612,2023-028P,2026-05-18T01:29:49.708896,14.98327165,.0002794,70.0001,69.4607,271.3086,88.7753,0,U,55754,999,17643,-.26043E-4,-.404E-5,0
STARLINK-5614,2023-028R,2026-05-18T04:18:03.026016,14.98372466,.0003016,69.9999,69.0638,262.5628,97.5189,0,U,55756,999,17645,-.52469E-3,-.6355E-4,0
STARLINK-5544,2023-028S,2026-05-18T04:48:07.185888,14.98322063,.0002817,69.9999,69.1386,268.8000,91.2836,0,U,55757,999,17645,-.75059E-4,-.988E-5,0
STARLINK-5072,2023-028T,2026-05-18T01:23:49.127136,14.98332555,.0002975,70.0000,69.4456,268.4760,91.6059,0,U,55758,999,17643,.50751E-4,.513E-5,0
STARLINK-5532,2023-028V,2026-05-18T04:12:02.630880,14.98327970,.0002929,69.9999,69.0499,264.9079,95.1746,0,U,55760,999,17645,-.24727E-4,-.388E-5,0
