STARLINK-5480           
1 55664U 23021AN  26137.59414870 -.00000947  00000+0 -71613-4 0  9994
2 55664  69.9994 350.8082 0002885 269.4355  90.6473 14.98333943179606
STARLINK-5474           
1 55665U 23021AP  26137.84031463 -.00000262  00000+0 -14206-4 0  9991
2 55665  69.9985 350.0632 0002782 270.9930  89.0911 14.98326866179630
STARLINK-5456           
1 55667U 23021AR  26138.02807213 -.00000596  00000+0 -42194-4 0  9995
2 55667  69.9984 349.5155 0002792 272.8069  87.2771 14.98330351179660
STARLINK-5455           
1 55668U 23021AS  26137.85701093 -.00000150  00000+0 -47939-5 0  9994
2 55668  69.9993 350.1205 0002919 265.6193  94.4633 14.98327568179634
STARLINK-5459           
1 55669U 23021AT  26137.98218920  .00003626  00000+0  31173-3 0  9991
2 55669  69.9993 349.7543 0002549 262.8042  97.2827 14.98308839179653
STARLINK-5423           
1 55670U 23021AU  26137.96966068 -.00000449  00000+0 -29857-4 0  9993
2 55670  69.9988 349.7106 0002573 268.9937  91.0928 14.98327791179664
STARLINK-5460           
1 55671U 23021AV  26138.01574174 -.00001153  00000+0 -88876-4 0  9993
2 55671  69.9996 349.8613 0002887 267.6216  92.4613 14.98330384179660
STARLINK-5463           
1 55673U 23021AX  26138.03224694 -.00000490  00000+0 -33246-4 0  9990
2 55673  69.9986 349.5282 0002830 267.2251  92.8584 14.98326492179670
STARLINK-5462           
1 55674U 23021AY  26138.02389547  .00000322  00000+0  34800-4 0  9998
2 55674  70.0001 349.4975 0002736 271.1234  88.9612 14.98330665179675
STARLINK-5232           
1 55675U 23021AZ  26138.01554913 -.00000316  00000+0 -18729-4 0  9996
2 55675  69.9989 349.4707 0002858 270.2478  89.8353 14.98329740179670
STARLINK-5300           
1 55676U 23021BA  26137.96542250  .00003412  00000+0  29354-3 0  9994
2 55676  70.0010 329.8229 0002763 270.1123  89.9719 14.98344135180158
STARLINK-5324           
1 55677U 23021BB  26137.81922000  .00000006  00000+0  82639-5 0  9997
2 55677  69.9989 330.1128 0002684 269.1520  90.9332 14.98328829180138
ZHONGXING-26            
1 55686U 23023A   26137.90854604 -.00000348  00000+0  00000+0 0  9999
2 55686   0.0707  76.5521 0003841 356.9824 254.2570  1.00274009 11926
HORUS 1                 
1 55690U 23025A   26137.67527362  .00003973  00000+0  16897-3 0  9999
2 55690  97.3470 212.9099 0002250 107.7511 252.3972 15.23587247179405
STARLINK-5592           
1 55741U 23028A   26138.16254605  .00000959  00000+0  88140-4 0  9993
2 55741  69.9998  69.4071 0002859 268.7803  91.3029 14.98329600176638
STARLINK-5594           
1 55742U 23028B   26138.16671024 -.00000118  00000+0 -20774-5 0  9991
2 55742  70.0001  69.4223 0002294 281.2677  78.8224 14.98327764176443
STARLINK-5602           
1 55743U 23028C   26138.17088786 -.00000091  00000+0  18883-6 0  9998
2 55743  70.0020  69.4373 0002337 296.3125  63.7794 14.98328933176448
STARLINK-5601           
1 55744U 23028D   26138.16687475 -.00000411  00000+0 -26686-4 0  9993
2 55744  70.0003  69.4233 0002738 268.8600  91.2245 14.98331096176443
STARLINK-5579           
1 55746U 23028F   26138.13749553 -.00001065  00000+0 -81466-4 0  9991
2 55746  70.0002  69.3213 0002693 270.3476  89.7374 14.98331864176448
STARLINK-5539           
1 55747U 23028G   26138.15418762 -.00000383  00000+0 -24289-4 0  9991
2 55747  70.0000  69.3784 0002974 270.1741  89.9077 14.98326216176442
STARLINK-5580           
1 55748U 23028H   26138.15001519 -.00000408  00000+0 -26387-4 0  9999
2 55748  70.0008  69.3637 0002967 266.6705  93.4114 14.98330032176443
STARLINK-5573           
1 55750U 23028K   26138.14583949 -.00000177  00000+0 -70621-5 0  9997
2 55750  69.9999  69.3486 0002828 272.2263  87.8572 14.98327440176446
STARLINK-5577           
1 55751U 23028L   26138.15836000  .00000047  00000+0  11715-4 0  9990
2 55751  70.0002  69.3929 0002966 266.8929  93.1890 14.98329188176442
STARLINK-5613           
1 55752U 23028M   26138.18755384 -.00000563  00000+0 -39374-4 0  9995
2 55752  70.0004  69.0945 0002647 268.7461  91.3395 14.98326779176452
STARLINK-5617           
1 55753U 23028N   26138.20439684  .00002366  00000+0  20588-3 0  9998
2 55753  70.0010  69.1533 0002980 266.3112  93.7707 14.98348093176457
STARLINK-5612           
1 55754U 23028P   26138.06238089 -.00000404  00000+0 -26043-4 0  9995
2 55754  70.0001  69.4607 0002794 271.3086  88.7753 14.98327165176432
STARLINK-5614           
1 55756U 23028R   26138.17920169 -.00006355  00000+0 -52469-3 0  9997
2 55756  69.9999  69.0638 0003016 262.5628  97.5189 14.98372466176456
STARLINK-5544           
1 55757U 23028S   26138.20008317 -.00000988  00000+0 -75059-4 0  9991
2 55757  69.9999  69.1386 0002817 268.8000  91.2836 14.98322063176457
STARLINK-5072           
1 55758U 23028T   26138.05820749  .00000513  00000+0  50751-4 0  9990
2 55758  70.0000  69.4456 0002975 268.4760  91.6059 14.98332555176435
STARLINK-5532           
1 55760U 23028V   26138.17503045 -.00000388  00000+0 -24727-4 0  9999
2 55760  69.9999  69.0499 0002929 264.9079  95.1746 14.98327970176457
